NORAD_CAT_ID,OBJECT_NAME,OBJECT_TYPE,EPOCH,MEAN_MOTION,ECCENTRICITY,INCLINATION,RA_OF_ASC_NODE,ARG_OF_PERICENTER,MEAN_ANOMALY,BSTAR,MEAN_MOTION_DOT,MEAN_MOTION_DDOT,TLE_LINE0,TLE_LINE1,TLE_LINE2,SEMIMAJOR_AXIS,PERIOD,APOGEE,PERIGEE,DECAYED
53629.0,STARLINK-4602,PAYLOAD,2022-11-07 22:00:00,15.08823724,0.0001798,53.2158,300.5914,50.6999,76.8526,0.0031253,0.00049781,0.0,0 STARLINK-4602,1 53629U 22104AT  22311.91667824  .00049781  00000-0  31253-2 0  9991,2 53629  53.2158 300.5914 0001798  50.6999  76.8526 15.08823724  1304,6917.93,95.439,541.039,538.5509999999998,0.0
53629.0,STARLINK-4602,PAYLOAD,2022-11-08 10:00:01,15.0886331,0.0001949,53.2159,298.3486,44.19300000000001,280.8651,0.0017685,0.00027988,0.0,0 STARLINK-4602,1 53629U 22104AT  22312.41668981  .00027988  00000-0  17685-2 0  9990,2 53629  53.2159 298.3486 0001949  44.1930 280.8651 15.08863310 11306,6917.809,95.436,541.0219999999998,538.326,0.0
53629.0,STARLINK-4602,PAYLOAD,2022-11-08 14:00:01,15.08876593,0.0001876,53.2158,297.5995,44.0002,106.8055,-0.00053493,-8.8e-05,0.0,0 STARLINK-4602,1 53629U 22104AT  22312.58334491 -.00008800  00000-0 -53493-3 0  9996,2 53629  53.2158 297.5995 0001876  44.0002 106.8055 15.08876593  1300,6917.769,95.435,540.931,538.336,0.0
53629.0,STARLINK-4602,PAYLOAD,2022-11-08 22:00:00,15.08818275,0.0001944,53.2164,296.1006,54.0633,108.3513,0.0025542,0.00040573,0.0,0 STARLINK-4602,1 53629U 22104AT  22312.91667824  .00040573  00000-0  25542-2 0  9996,2 53629  53.2164 296.1006 0001944  54.0633 108.3513 15.08818275 11379,6917.946999999999,95.439,541.1569999999998,538.467,0.0
53629.0,STARLINK-4602,PAYLOAD,2022-11-09 14:00:01,15.08862181,0.0001945,53.2163,293.1099,46.6143,138.9926,-0.0035469,-0.00056331,0.0,0 STARLINK-4602,1 53629U 22104AT  22313.58334491 -.00056331  00000-0 -35469-2 0  9991,2 53629  53.2163 293.1099 0001945  46.6143 138.9926 15.08862181  1305,6917.813,95.436,541.023,538.332,0.0
53629.0,STARLINK-4602,PAYLOAD,2022-11-09 22:00:01,15.08824705,0.0001794,53.2167,291.6124,50.7941,146.4677,0.00023468,3.447e-05,0.0,0 STARLINK-4602,1 53629U 22104AT  22313.91668981  .00003447  00000-0  23468-3 0  9997,2 53629  53.2167 291.6124 0001794  50.7941 146.4677 15.08824705 11527,6917.927,95.439,541.033,538.5509999999998,0.0
53629.0,STARLINK-4602,PAYLOAD,2022-11-10 14:00:01,15.08846011,0.0001901,53.2169,288.6206,45.133,175.2371,-0.0020507,-0.00032783,0.0,0 STARLINK-4602,1 53629U 22104AT  22314.58334491 -.00032783  00000-0 -20507-2 0  9994,2 53629  53.2169 288.6206 0001901  45.1330 175.2371 15.08846011  1306,6917.861999999999,95.437,541.0419999999998,538.4119999999998,0.0
53629.0,STARLINK-4602,PAYLOAD,2022-11-10 22:00:00,15.08830324,0.000179,53.2173,287.1233,50.7878,181.1668,0.0018475,0.0002923,0.0,0 STARLINK-4602,1 53629U 22104AT  22314.91667824  .00029230  00000-0  18475-2 0  9992,2 53629  53.2173 287.1233 0001790  50.7878 181.1668 15.08830324  1305,6917.91,95.438,541.013,538.5369999999998,0.0
53629.0,STARLINK-4602,PAYLOAD,2022-11-11 08:00:01,15.08806411,0.0001945,53.2175,285.2549,43.4298,293.0291,0.0027658,0.00043964,0.0,0 STARLINK-4602,1 53629U 22104AT  22315.33334491  .00043964  00000-0  27658-2 0  9993,2 53629  53.2175 285.2549 0001945  43.4298 293.0291 15.08806411 11747,6917.983,95.44,541.194,538.503,0.0
53629.0,STARLINK-4602,PAYLOAD,2022-11-11 14:00:01,15.0885893,0.0001776999999999,53.2174,284.1315,43.1847,211.9464,-0.0042272,-0.00066974,0.0,0 STARLINK-4602,1 53629U 22104AT  22315.58334491 -.00066974  00000-0 -42272-2 0  9997,2 53629  53.2174 284.1315 0001777  43.1847 211.9464 15.08858930  1300,6917.823,95.436,540.9169999999998,538.4580000000002,0.0
53629.0,STARLINK-4602,PAYLOAD,2022-11-11 22:00:00,15.08818043,0.0001654,53.2177,282.6344,48.4333,218.2892,0.0023857,0.00037862,0.0,0 STARLINK-4602,1 53629U 22104AT  22315.91667824  .00037862  00000-0  23857-2 0  9993,2 53629  53.2177 282.6344 0001654  48.4333 218.2892 15.08818043 11824,6917.948,95.439,540.957,538.668,0.0
53629.0,STARLINK-4602,PAYLOAD,2022-11-12 14:00:01,15.08879597,0.0001791,53.2175,279.6426,45.8805,244.0216,-0.0040166,-0.00063717,0.0,0 STARLINK-4602,1 53629U 22104AT  22316.58334491 -.00063717  00000-0 -40166-2 0  9990,2 53629  53.2175 279.6426 0001791  45.8805 244.0216 15.08879597 11925,6917.759,95.435,540.863,538.385,0.0
53629.0,STARLINK-4602,PAYLOAD,2022-11-12 22:00:00,15.08856855,0.0001786,53.2177,278.1457,54.2395,247.2701,-0.0012633,-0.00020347,0.0,0 STARLINK-4602,1 53629U 22104AT  22316.91667824 -.00020347  00000-0 -12633-2 0  9996,2 53629  53.2177 278.1457 0001786  54.2395 247.2701 15.08856855  1304,6917.829000000002,95.436,540.929,538.4580000000002,0.0
53629.0,STARLINK-4602,PAYLOAD,2022-11-13 06:00:02,15.08821894,0.0002004,53.2174,276.6512,49.5706,263.6085,0.00051723,7.949e-05,0.0,0 STARLINK-4602,1 53629U 22104AT  22317.25002315  .00007949  00000-0  51723-3 0  9997,2 53629  53.2174 276.6512 0002004  49.5706 263.6085 15.08821894 12037,6917.936,95.439,541.187,538.414,0.0
53629.0,STARLINK-4602,PAYLOAD,2022-11-13 14:00:01,15.08831275,0.0001854,53.2171,275.1538,50.6061,274.0885,-0.0017484,-0.00028,0.0,0 STARLINK-4602,1 53629U 22104AT  22317.58334491 -.00028000  00000-0 -17484-2 0  9994,2 53629  53.2171 275.1538 0001854  50.6061 274.0885 15.08831275  1301,6917.906999999997,95.438,541.055,538.489,0.0
53629.0,STARLINK-4602,PAYLOAD,2022-11-13 22:00:00,15.08828394,0.0001781,53.2172,273.6572,56.0197,280.2429,0.0013613,0.00021437,0.0,0 STARLINK-4602,1 53629U 22104AT  22317.91667824  .00021437  00000-0  13613-2 0  9995,2 53629  53.2172 273.6572 0001781  56.0197 280.2429 15.08828394  1303,6917.916,95.438,541.013,538.549,0.0
53629.0,STARLINK-4602,PAYLOAD,2022-11-14 14:00:01,15.08850358,0.0001783,53.2168,270.6644,52.0756,307.3761,-0.0021223,-0.00033916,0.0,0 STARLINK-4602,1 53629U 22104AT  22318.58334491 -.00033916  00000-0 -21223-2 0  9993,2 53629  53.2168 270.6644 0001783  52.0756 307.3761 15.08850358  1309,6917.849,95.437,540.947,538.48,0.0
53629.0,STARLINK-4602,PAYLOAD,2022-11-14 22:00:00,15.08879736,0.00017,53.217,269.1662,53.5788,317.4554,-0.0053365,-0.00084318,0.0,0 STARLINK-4602,1 53629U 22104AT  22318.91667824 -.00084318  00000-0 -53365-2 0  9993,2 53629  53.2170 269.1662 0001700  53.5788 317.4554 15.08879736  1308,6917.759,95.435,540.8,538.448,0.0
53629.0,STARLINK-4602,PAYLOAD,2022-11-15 08:00:01,15.08803165,0.0001819,53.216,267.2997,46.6786,68.9228,0.0032714,0.00052109,0.0,0 STARLINK-4602,1 53629U 22104AT  22319.33335648  .00052109  00000-0  32714-2 0  9992,2 53629  53.2160 267.2997 0001819  46.6786  68.9228 15.08803165 12344,6917.993,95.44,541.116,538.6,0.0
53629.0,STARLINK-4602,PAYLOAD,2022-11-15 14:00:01,15.08839261,0.0001732,53.216,266.176,51.0077,343.2088,-0.00063333,-0.00010353,0.0,0 STARLINK-4602,1 53629U 22104AT  22319.58334491 -.00010353  00000-0 -63333-3 0  9993,2 53629  53.2160 266.1760 0001732  51.0077 343.2088 15.08839261  1300,6917.8830000000025,95.438,540.946,538.549,0.0
53629.0,STARLINK-4602,PAYLOAD,2022-11-15 22:00:00,15.08847416,0.0001802,53.216,264.6795,56.6739,349.1298,-0.0019125,-0.00030603,0.0,0 STARLINK-4602,1 53629U 22104AT  22319.91667824 -.00030603  00000-0 -19125-2 0  9998,2 53629  53.2160 264.6795 0001802  56.6739 349.1298 15.08847416 12430,6917.858,95.437,540.969,538.476,0.0
53629.0,STARLINK-4602,PAYLOAD,2022-11-16 14:00:01,15.0884107,0.0001865,53.2166,261.6849,52.2739,16.7661,0.00016183,2.288e-05,0.0,0 STARLINK-4602,1 53629U 22104AT  22320.58335648  .00002288  00000-0  16183-3 0  9997,2 53629  53.2166 261.6849 0001865  52.2739  16.7661 15.08841070 12536,6917.877,95.437,541.0319999999998,538.452,0.0
53629.0,STARLINK-4602,PAYLOAD,2022-11-16 22:00:08,15.08854041,0.0001809,53.2169,260.1865,51.3621,29.652,-0.0016797999999999,-0.00026933,0.0,0 STARLINK-4602,1 53629U 22104AT  22320.91675926 -.00026933  00000-0 -16798-2 0  9996,2 53629  53.2169 260.1865 0001809  51.3621  29.6520 15.08854041  1301,6917.837,95.437,540.9540000000002,538.451,0.0
53629.0,STARLINK-4602,PAYLOAD,2022-11-17 14:00:01,15.08847787,0.0001866,53.2163,257.1975,52.7068,51.0484,-0.0012411,-0.0001999,0.0,0 STARLINK-4602,1 53629U 22104AT  22321.58334491 -.00019990  00000-0 -12411-2 0  9992,2 53629  53.2163 257.1975 0001866  52.7068  51.0484 15.08847787  1303,6917.857,95.437,541.012,538.431,0.0
53629.0,STARLINK-4602,PAYLOAD,2022-11-17 22:00:00,15.08842057,0.0001989,53.2171,255.6976,52.4233,62.9339,-0.00056525,-9.274e-05,0.0,0 STARLINK-4602,1 53629U 22104AT  22321.91667824 -.00009274  00000-0 -56525-3 0  9997,2 53629  53.2171 255.6976 0001989  52.4233  62.9339 15.08842057 12737,6917.874,95.437,541.115,538.363,0.0
53629.0,STARLINK-4602,PAYLOAD,2022-11-18 14:00:01,15.08818396,0.0001988,53.2168,252.7082,47.728,90.7724,0.0011970999999999,0.00018804,0.0,0 STARLINK-4602,1 53629U 22104AT  22322.58334491  .00018804  00000-0  11971-2 0  9994,2 53629  53.2168 252.7082 0001988  47.7280  90.7724 15.08818396 12834,6917.946,95.439,541.187,538.436,0.0
53629.0,STARLINK-4602,PAYLOAD,2022-11-18 22:00:00,15.08850151,0.0002056,53.217,251.212,49.9397,100.132,-0.00072031,-0.00011737,0.0,0 STARLINK-4602,1 53629U 22104AT  22322.91667824 -.00011737  00000-0 -72031-3 0  9995,2 53629  53.2170 251.2120 0002056  49.9397 100.1320 15.08850151  1307,6917.849,95.437,541.137,538.2919999999998,0.0
53629.0,STARLINK-4602,PAYLOAD,2022-11-19 14:00:01,15.0882609,0.0001953,53.2171,248.2189,47.3447,125.9416,0.0011895,0.00018686,0.0,0 STARLINK-4602,1 53629U 22104AT  22323.58334491  .00018686  00000-0  11895-2 0  9998,2 53629  53.2171 248.2189 0001953  47.3447 125.9416 15.08826090  1308,6917.9230000000025,95.438,541.139,538.437,0.0
53629.0,STARLINK-4602,PAYLOAD,2022-11-19 16:00:00,15.08810485,0.0001945,53.217,247.8445,48.8972,217.2914,0.003512,0.00056005,0.0,0 STARLINK-4602,1 53629U 22104AT  22323.66667824  .00056005  00000-0  35120-2 0  9990,2 53629  53.2170 247.8445 0001945  48.8972 217.2914 15.08810485 12993,6917.971,95.439,541.181,538.49,0.0
